ONEWEB-0032             
1 45141U 20008L   24063.42169291 -.00000352  00000+0 -10436-2 0  9991
2 45141  87.8955 202.3391 0001643  98.0671 262.0643 13.10372145198844
ONEWEB-0033             
1 45142U 20008M   24063.39568843 -.00000157  00000+0 -48646-3 0  9992
2 45142  87.8949 202.3528 0001334 101.9172 258.2104 13.10371632198756
ONEWEB-0035             
1 45143U 20008N   24063.42819286 -.00000048  00000+0 -17471-3 0  9998
2 45143  87.8961 202.3221 0001486  99.6931 260.4364 13.10376077198486
ONEWEB-0036             
1 45144U 20008P   24063.41844095 -.00000507  00000+0 -14878-2 0  9991
2 45144  87.8956 202.2852 0001776 104.2962 255.8362 13.10374376198913
ONEWEB-0038             
1 45145U 20008Q   24063.40122802  .00000568  00000+0  15679-2 0  9991
2 45145  87.9028 187.2212 0002181  84.4749 275.6628 13.11419140200784
